INMARSAT 4-F2 (SOUTHPA*)
1 28899U 05044A   26066.32312978 -.00000261  00000+0  00000+0 0  9992
2 28899   4.9615  43.8045 0002739 326.0100  55.0374  1.00271561 74503
GSAT-8 (GAGAN/PRN 127)  
1 37605U 11022A   26066.22822786  .00000083  00000+0  00000+0 0  9993
2 37605   1.8673  83.1201 0007117 216.7605   2.2743  1.00273571 52197
LUCH 5A (SDCM/PRN 140)  
1 37951U 11074B   26066.75570944 -.00000047  00000+0  00000+0 0  9999
2 37951   8.4953  75.2960 0003819 249.7918 279.5660  1.00276314 52035
SES-5 (EGNOS/PRN 136)   
1 38652U 12036A   26066.26572604  .00000031  00000+0  00000+0 0  9990
2 38652   0.0605 309.0724 0001903  34.6011 281.9281  1.00271655 43432
GSAT-10 (GAGAN/PRN 128) 
1 38779U 12051B   26066.64436319 -.00000166  00000+0  00000+0 0  9991
2 38779   0.0654 261.4568 0004647 178.1977  40.6446  1.00273350 49080
LUCH 5B (SDCM/PRN 125)  
1 38977U 12061A   26066.22016932 -.00000138  00000+0  00000+0 0  9990
2 38977  10.2667  50.8773 0003664 228.4082 308.5934  1.00271873 48589
ASTRA 5B (EGNOS/PRN 123)
1 39617U 14011B   26066.25461596  .00000135  00000+0  00000+0 0  9998
2 39617   0.0851 301.3900 0003996  29.0822 309.6237  1.00272553 43640
LUCH 5V (SDCM/PRN 141)  
1 39727U 14023A   26066.02820178 -.00000270  00000+0  00000+0 0  9994
2 39727   4.8814  70.7503 0003075 285.6629 273.2102  1.00271257 43335
GSAT-15 (GAGAN/PRN 139) 
1 41028U 15065A   26066.39975431 -.00000259  00000+0  00000+0 0  9998
2 41028   0.0823 269.5034 0001209 111.2106  21.7781  1.00272198 37773
EUTELSAT 117 WEST B (W*)
1 41589U 16038B   26066.35739146 -.00000013  00000+0  00000+0 0  9996
2 41589   0.0164 306.7826 0000439 312.0950 277.8575  1.00270967 35649
SES-15 (WAAS/PRN 133)   
1 42709U 17026A   26066.52336347  .00000058  00000+0  00000+0 0  9992
2 42709   0.0427 318.1999 0001016  33.8962 232.3748  1.00274261  6419
QZS-2 (QZSS/PRN 194)    
1 42738U 17028A   26065.89280925 -.00000162  00000+0  00000+0 0  9992
2 42738  39.5865 244.6431 0745331 270.3514 112.5324  1.00261347  6605
QZS-3 (QZSS/PRN 199)    
1 42917U 17048A   26066.60268897 -.00000349  00000+0  00000+0 0  9994
2 42917   0.0667 211.2342 0002300 151.1691 146.8863  1.00274879 31242
QZS-4 (QZSS/PRN 195)    
1 42965U 17062A   26064.74126170 -.00000341  00000+0  00000+0 0  9995
2 42965  40.1722 344.8064 0748494 269.9150 316.0784  1.00280691 30763
BEIDOU-3 G1 (PRN 130)   
1 43683U 18085A   26066.44836589 -.00000280  00000+0  00000+0 0  9992
2 43683   2.8182 100.2970 0001615  13.9526 352.3140  1.00267773 27049
EUTELSAT 5 WEST B (EGN*)
1 44624U 19067A   26066.29366299 -.00000044  00000+0  00000+0 0  9996
2 44624   0.0897 313.6187 0003222  44.5352 267.5427  1.00273225 23412
BEIDOU-3 G2 (PRN 144)   
1 45344U 20017A   26066.64416351 -.00000141  00000+0  00000+0 0  9995
2 45344   2.6606  45.6423 0002731 312.4913 119.1467  1.00272784 22242
BEIDOU-3 G3 (PRN 143)   
1 45807U 20040A   26066.31662976 -.00000355  00000+0  00000+0 0  9992
2 45807   2.1970  67.1394 0004605 320.2031   2.1784  1.00274224 21042
GALAXY 30 (WAAS/PRN 135)
1 46114U 20056C   26066.51780862  .00000000  00000+0  00000+0 0  9994
2 46114   0.0219 149.1291 0002062 212.1754 225.3458  1.00272034 20278
QZS-1R (QZSS/PRN 196)   
1 49336U 21096A   26065.82405683 -.00000265  00000+0  00000+0 0  9990
2 49336  37.2488  81.0937 0747759 269.7649 244.5984  1.00290649 15989
QZS-6 (QZSS/PRN 200)    
1 62876U 25023A   26066.60622347 -.00000234  00000+0  00000+0 0  9999
2 62876   0.0200 262.9949 0001813  83.9353 127.0920  1.00269508  3946
